start=new Date('2022-05-21T00:00:00.000Z').valueOf();
sats=[{"SITE":"AFETR","PERIOD":"95.592","DECAY_DATE":null,"ARG_OF_PERICENTER":"64.4965","CENTER_NAME":"EARTH","REF_FRAME":"TEME","INCLINATION":"53.0552","FILE":"3455160","ELEMENT_SET_NO":"999","MEAN_MOTION":"15.06399008","EPOCH":"2022-05-20T13:27:54.248256","MEAN_ANOMALY":"295.6197","MEAN_MOTION_DOT":"0.00000424","PERIAPSIS":"546.061","BSTAR":"0.00004734100000","MEAN_MOTION_DDOT":"0.0000000000000","TIME_SYSTEM":"UTC","ECCENTRICITY":"0.00016690","EPHEMERIS_TYPE":"0","RA_OF_ASC_NODE":"2.6622","LAUNCH_DATE":"2020-01-29","CLASSIFICATION_TYPE":"U","RCS_SIZE":"LARGE","OBJECT_ID":"2020-006BE","GP_ID":"204038215","NORAD_CAT_ID":"45096","OBJECT_TYPE":"PAYLOAD","COUNTRY_CODE":"US","REV_AT_EPOCH":"12764","SEMIMAJOR_AXIS":"6925.352","APOAPSIS":"548.372","MEAN_ELEMENT_THEORY":"SGP4","OBJECT_NAME":"STARLINK-1152","TLE_LINE1":"1 45096U 20006BE  22140.56104454  .00000424  00000-0  47341-4 0  9993","TLE_LINE2":"2 45096  53.0552   2.6622 0001669  64.4965 295.6197 15.06399008127640"},{"APOAPSIS":"548.170","MEAN_ELEMENT_THEORY":"SGP4","REV_AT_EPOCH":"12761","SEMIMAJOR_AXIS":"6925.320","OBJECT_ID":"2020-006BG","GP_ID":"204038465","NORAD_CAT_ID":"45098","OBJECT_TYPE":"PAYLOAD","COUNTRY_CODE":"US","TLE_LINE1":"1 45098U 20006BG  22140.34357282 -.00002525  00000-0 -15063-3 0  9991","TLE_LINE2":"2 45098  53.0547   3.6369 0001422  72.6620 287.4525 15.06409234127615","OBJECT_NAME":"STARLINK-1184","ECCENTRICITY":"0.00014220","TIME_SYSTEM":"UTC","MEAN_MOTION_DDOT":"0.0000000000000","RCS_SIZE":"LARGE","RA_OF_ASC_NODE":"3.6369","LAUNCH_DATE":"2020-01-29","CLASSIFICATION_TYPE":"U","EPHEMERIS_TYPE":"0","EPOCH":"2022-05-20T08:14:44.691648","MEAN_MOTION":"15.06409234","BSTAR":"-0.00015063000000","MEAN_MOTION_DOT":"-0.00002525","PERIAPSIS":"546.200","MEAN_ANOMALY":"287.4525","DECAY_DATE":null,"SITE":"AFETR","PERIOD":"95.592","ELEMENT_SET_NO":"999","INCLINATION":"53.0547","REF_FRAME":"TEME","FILE":"3455160","ARG_OF_PERICENTER":"72.6620","CENTER_NAME":"EARTH"},{"APOAPSIS":"548.432","MEAN_ELEMENT_THEORY":"SGP4","REV_AT_EPOCH":"12761","SEMIMAJOR_AXIS":"6925.347","OBJECT_ID":"2020-006BH","GP_ID":"204039217","NORAD_CAT_ID":"45099","COUNTRY_CODE":"US","OBJECT_TYPE":"PAYLOAD","TLE_LINE1":"1 45099U 20006BH  22140.31039806 -.00000947  00000-0 -44668-4 0  9998","TLE_LINE2":"2 45099  53.0546   3.7983 0001761  59.6918 300.4245 15.06400504127615","OBJECT_NAME":"STARLINK-1186","ECCENTRICITY":"0.00017610","TIME_SYSTEM":"UTC","MEAN_MOTION_DDOT":"0.0000000000000","RCS_SIZE":"LARGE","RA_OF_ASC_NODE":"3.7983","LAUNCH_DATE":"2020-01-29","CLASSIFICATION_TYPE":"U","EPHEMERIS_TYPE":"0","EPOCH":"2022-05-20T07:26:58.392384","MEAN_MOTION":"15.06400504","BSTAR":"-0.00004466800000","MEAN_MOTION_DOT":"-0.00000947","PERIAPSIS":"545.992","MEAN_ANOMALY":"300.4245","DECAY_DATE":null,"SITE":"AFETR","PERIOD":"95.592","ELEMENT_SET_NO":"999","INCLINATION":"53.0546","REF_FRAME":"TEME","FILE":"3455160","CENTER_NAME":"EARTH","ARG_OF_PERICENTER":"59.6918"},{"MEAN_ANOMALY":"294.8515","PERIAPSIS":"546.081","MEAN_MOTION_DOT":"-0.00000996","BSTAR":"-0.00004797800000","MEAN_MOTION":"15.06397865","EPOCH":"2022-05-20T08:09:26.430336","CENTER_NAME":"EARTH","ARG_OF_PERICENTER":"65.2645","FILE":"3455160","REF_FRAME":"TEME","INCLINATION":"53.0581","ELEMENT_SET_NO":"999","PERIOD":"95.592","SITE":"AFETR","DECAY_DATE":null,"OBJECT_NAME":"STARLINK-1193","TLE_LINE2":"2 45100  53.0581   3.6543 0001645  65.2645 294.8515 15.06397865127610","TLE_LINE1":"1 45100U 20006BJ  22140.33988924 -.00000996  00000-0 -47978-4 0  9998","OBJECT_TYPE":"PAYLOAD","COUNTRY_CODE":"US","GP_ID":"204038944","NORAD_CAT_ID":"45100","OBJECT_ID":"2020-006BJ","SEMIMAJOR_AXIS":"6925.355","REV_AT_EPOCH":"12761","MEAN_ELEMENT_THEORY":"SGP4","APOAPSIS":"548.359","EPHEMERIS_TYPE":"0","CLASSIFICATION_TYPE":"U","LAUNCH_DATE":"2020-01-29","RA_OF_ASC_NODE":"3.6543","RCS_SIZE":"LARGE","TIME_SYSTEM":"UTC","MEAN_MOTION_DDOT":"0.0000000000000","ECCENTRICITY":"0.00016450"},{"ELEMENT_SET_NO":"999","CENTER_NAME":"EARTH","ARG_OF_PERICENTER":"67.1194","FILE":"3455160","INCLINATION":"53.0558","REF_FRAME":"TEME","PERIOD":"95.592","SITE":"AFETR","DECAY_DATE":null,"BSTAR":"-0.00002400700000","MEAN_ANOMALY":"292.9971","PERIAPSIS":"546.057","MEAN_MOTION_DOT":"-0.00000639","EPOCH":"2022-05-20T08:04:07.428576","MEAN_MOTION":"15.06400171","RCS_SIZE":"LARGE","EPHEMERIS_TYPE":"0","CLASSIFICATION_TYPE":"U","LAUNCH_DATE":"2020-01-29","RA_OF_ASC_NODE":"3.6562","ECCENTRICITY":"0.00016690","MEAN_MOTION_DDOT":"0.0000000000000","TIME_SYSTEM":"UTC","TLE_LINE2":"2 45101  53.0558   3.6562 0001669  67.1194 292.9971 15.06400171127612","TLE_LINE1":"1 45101U 20006BK  22140.33619709 -.00000639  00000-0 -24007-4 0  9993","OBJECT_NAME":"STARLINK-1194","MEAN_ELEMENT_THEORY":"SGP4","APOAPSIS":"548.369","COUNTRY_CODE":"US","OBJECT_TYPE":"PAYLOAD","NORAD_CAT_ID":"45101","GP_ID":"204037716","OBJECT_ID":"2020-006BK","SEMIMAJOR_AXIS":"6925.348","REV_AT_EPOCH":"12761"},{"ELEMENT_SET_NO":"999","FILE":"3455160","REF_FRAME":"TEME","INCLINATION":"53.0556","ARG_OF_PERICENTER":"77.1812","CENTER_NAME":"EARTH","DECAY_DATE":null,"PERIOD":"95.592","SITE":"AFETR","BSTAR":"0.00024750000000","PERIAPSIS":"545.770","MEAN_MOTION_DOT":"0.00003407","MEAN_ANOMALY":"282.9409","EPOCH":"2022-05-20T08:35:58.548192","MEAN_MOTION":"15.06401976","RCS_SIZE":"LARGE","LAUNCH_DATE":"2020-01-29","CLASSIFICATION_TYPE":"U","RA_OF_ASC_NODE":"3.5730","EPHEMERIS_TYPE":"0","ECCENTRICITY":"0.00020760","MEAN_MOTION_DDOT":"0.0000000000000","TIME_SYSTEM":"UTC","TLE_LINE2":"2 45102  53.0556   3.5730 0002076  77.1812 282.9409 15.06401976127617","TLE_LINE1":"1 45102U 20006BL  22140.35831653  .00003407  00000-0  24750-3 0  9998","OBJECT_NAME":"STARLINK-1195","MEAN_ELEMENT_THEORY":"SGP4","APOAPSIS":"548.645","REV_AT_EPOCH":"12761","SEMIMAJOR_AXIS":"6925.343","COUNTRY_CODE":"US","OBJECT_TYPE":"PAYLOAD","NORAD_CAT_ID":"45102","GP_ID":"204037966","OBJECT_ID":"2020-006BL"},{"PERIOD":"95.591","SITE":"AFETR","DECAY_DATE":null,"CENTER_NAME":"EARTH","ARG_OF_PERICENTER":"89.2621","FILE":"3455160","INCLINATION":"53.0535","REF_FRAME":"TEME","ELEMENT_SET_NO":"999","MEAN_MOTION":"15.06413053","EPOCH":"2022-05-20T14:08:58.120512","MEAN_ANOMALY":"270.8542","PERIAPSIS":"546.119","MEAN_MOTION_DOT":"0.00004340","BSTAR":"0.00030997000000","TIME_SYSTEM":"UTC","MEAN_MOTION_DDOT":"0.0000000000000","ECCENTRICITY":"0.00015230","EPHEMERIS_TYPE":"0","LAUNCH_DATE":"2020-01-29","CLASSIFICATION_TYPE":"U","RA_OF_ASC_NODE":"2.5686","RCS_SIZE":"LARGE","COUNTRY_CODE":"US","OBJECT_TYPE":"PAYLOAD","GP_ID":"204038718","NORAD_CAT_ID":"45103","OBJECT_ID":"2020-006BM","SEMIMAJOR_AXIS":"6925.309","REV_AT_EPOCH":"12765","MEAN_ELEMENT_THEORY":"SGP4","APOAPSIS":"548.228","OBJECT_NAME":"STARLINK-1196","TLE_LINE2":"2 45103  53.0535   2.5686 0001523  89.2621 270.8542 15.06413053127659","TLE_LINE1":"1 45103U 20006BM  22140.58956158  .00004340  00000-0  30997-3 0  9999"},{"RA_OF_ASC_NODE":"163.1960","CLASSIFICATION_TYPE":"U","LAUNCH_DATE":"2020-02-17","EPHEMERIS_TYPE":"0","RCS_SIZE":"LARGE","MEAN_MOTION_DDOT":"0.0000000000000","TIME_SYSTEM":"UTC","ECCENTRICITY":"0.00018880","OBJECT_NAME":"STARLINK-1138","TLE_LINE1":"1 45178U 20012A   22140.44312401  .00001977  00000-0  15163-3 0  9991","TLE_LINE2":"2 45178  53.0555 163.1960 0001888  53.2829 306.8333 15.06396764124796","SEMIMAJOR_AXIS":"6925.358","REV_AT_EPOCH":"12479","GP_ID":"204048622","OBJECT_ID":"2020-012A","NORAD_CAT_ID":"45178","COUNTRY_CODE":"US","OBJECT_TYPE":"PAYLOAD","APOAPSIS":"548.531","MEAN_ELEMENT_THEORY":"SGP4","REF_FRAME":"TEME","INCLINATION":"53.0555","FILE":"3455444","CENTER_NAME":"EARTH","ARG_OF_PERICENTER":"53.2829","ELEMENT_SET_NO":"999","DECAY_DATE":null,"SITE":"AFETR","PERIOD":"95.592","MEAN_MOTION_DOT":"0.00001977","PERIAPSIS":"545.916","MEAN_ANOMALY":"306.8333","BSTAR":"0.00015163000000","MEAN_MOTION":"15.06396764","EPOCH":"2022-05-20T10:38:05.914464"},{"BSTAR":"0.00006967300000","MEAN_ANOMALY":"312.3103","PERIAPSIS":"545.921","MEAN_MOTION_DOT":"0.00000756","EPOCH":"2022-05-20T10:43:21.416160","MEAN_MOTION":"15.06404614","ELEMENT_SET_NO":"999","CENTER_NAME":"EARTH","ARG_OF_PERICENTER":"47.8043","FILE":"3455160","INCLINATION":"53.0529","REF_FRAME":"TEME","PERIOD":"95.592","SITE":"AFETR","DECAY_DATE":null,"TLE_LINE2":"2 45179  53.0529 163.1612 0001846  47.8043 312.3103 15.06404614125447","TLE_LINE1":"1 45179U 20012B   22140.44677565  .00000756  00000-0  69673-4 0  9997","OBJECT_NAME":"STARLINK-1143","MEAN_ELEMENT_THEORY":"SGP4","APOAPSIS":"548.478","OBJECT_TYPE":"PAYLOAD","COUNTRY_CODE":"US","GP_ID":"204038473","NORAD_CAT_ID":"45179","OBJECT_ID":"2020-012B","REV_AT_EPOCH":"12544","SEMIMAJOR_AXIS":"6925.334","RCS_SIZE":"LARGE","EPHEMERIS_TYPE":"0","CLASSIFICATION_TYPE":"U","LAUNCH_DATE":"2020-02-17","RA_OF_ASC_NODE":"163.1612","ECCENTRICITY":"0.00018460","MEAN_MOTION_DDOT":"0.0000000000000","TIME_SYSTEM":"UTC"},{"DECAY_DATE":null,"SITE":"AFETR","PERIOD":"95.444","ELEMENT_SET_NO":"999","INCLINATION":"53.0504","REF_FRAME":"TEME","FILE":"3455160","ARG_OF_PERICENTER":"4.7791","CENTER_NAME":"EARTH","EPOCH":"2022-05-20T08:53:38.009184","MEAN_MOTION":"15.08737609","BSTAR":"0.00090592000000","MEAN_MOTION_DOT":"0.00014120","PERIAPSIS":"538.919","MEAN_ANOMALY":"355.3214","ECCENTRICITY":"0.00016470","MEAN_MOTION_DDOT":"0.0000000000000","TIME_SYSTEM":"UTC","RCS_SIZE":"LARGE","RA_OF_ASC_NODE":"162.7882","CLASSIFICATION_TYPE":"U","LAUNCH_DATE":"2020-02-17","EPHEMERIS_TYPE":"0","APOAPSIS":"541.198","MEAN_ELEMENT_THEORY":"SGP4","SEMIMAJOR_AXIS":"6918.193","REV_AT_EPOCH":"12544","OBJECT_ID":"2020-012C","GP_ID":"204039225","NORAD_CAT_ID":"45180","OBJECT_TYPE":"PAYLOAD","COUNTRY_CODE":"US","TLE_LINE1":"1 45180U 20012C   22140.37057881  .00014120  00000-0  90592-3 0  9997","TLE_LINE2":"2 45180  53.0504 162.7882 0001647   4.7791 355.3214 15.08737609125442","OBJECT_NAME":"STARLINK-1192"}];
